[
  {
    "OBJECT_NAME": "STARLINK-3841",
    "OBJECT_ID": "22045AQ",
    "EPOCH": "2025-11-11T06:35:33.229824",
    "MEAN_MOTION": 15.08840173,
    "ECCENTRICITY": 0.0001261,
    "INCLINATION": 53.2178,
    "RA_OF_ASC_NODE": 0.7051,
    "ARG_OF_PERICENTER": 94.2402,
    "MEAN_ANOMALY": 265.8734,
    "EPHEMERIS_TYPE": 0,
    "CLASSIFICATION_TYPE": "U",
    "NORAD_CAT_ID": 52369,
    "ELEMENT_SET_NO": 999,
    "REV_AT_EPOCH": 19804,
    "BSTAR": 0.00012518999999999999,
    "MEAN_MOTION_DOT": 1.705e-05,
    "MEAN_MOTION_DDOT": 0.0,
    "TLE_LINE1": "1 52369U 22045AQ  25315.27469016  .00001705  00000+0  12519-3 0  9992",
    "TLE_LINE2": "2 52369  53.2178   0.7051 0001261  94.2402 265.8734 15.08840173198041",
    "COMMENT": "Grouped by shell and plane from TLE"
  },
  {
    "OBJECT_NAME": "STARLINK-3827",
    "OBJECT_ID": "22045AR",
    "EPOCH": "2025-11-11T06:26:18.709440",
    "MEAN_MOTION": 15.08840433,
    "ECCENTRICITY": 0.0001257,
    "INCLINATION": 53.218,
    "RA_OF_ASC_NODE": 0.7448,
    "ARG_OF_PERICENTER": 72.2613,
    "MEAN_ANOMALY": 287.8517,
    "EPHEMERIS_TYPE": 0,
    "CLASSIFICATION_TYPE": "U",
    "NORAD_CAT_ID": 52370,
    "ELEMENT_SET_NO": 999,
    "REV_AT_EPOCH": 19804,
    "BSTAR": 3.669200000000001e-05,
    "MEAN_MOTION_DOT": 2.96e-06,
    "MEAN_MOTION_DDOT": 0.0,
    "TLE_LINE1": "1 52370U 22045AR  25315.26827210  .00000296  00000+0  36692-4 0  9990",
    "TLE_LINE2": "2 52370  53.2180   0.7448 0001257  72.2613 287.8517 15.08840433198043",
    "COMMENT": "Grouped by shell and plane from TLE"
  },
  {
    "OBJECT_NAME": "STARLINK-3798",
    "OBJECT_ID": "22045AS",
    "EPOCH": "2025-11-10T12:51:47.193696",
    "MEAN_MOTION": 15.08819911,
    "ECCENTRICITY": 0.0001774,
    "INCLINATION": 53.2183,
    "RA_OF_ASC_NODE": 4.031,
    "ARG_OF_PERICENTER": 98.1431,
    "MEAN_ANOMALY": 261.9762,
    "EPHEMERIS_TYPE": 0,
    "CLASSIFICATION_TYPE": "U",
    "NORAD_CAT_ID": 52371,
    "ELEMENT_SET_NO": 999,
    "REV_AT_EPOCH": 19792,
    "BSTAR": 2.5252000000000005e-05,
    "MEAN_MOTION_DOT": 1.14e-06,
    "MEAN_MOTION_DDOT": 0.0,
    "TLE_LINE1": "1 52371U 22045AS  25314.53596289  .00000114  00000+0  25252-4 0  9998",
    "TLE_LINE2": "2 52371  53.2183   4.0310 0001774  98.1431 261.9762 15.08819911197929",
    "COMMENT": "Grouped by shell and plane from TLE"
  },
  {
    "OBJECT_NAME": "STARLINK-3796",
    "OBJECT_ID": "22045AT",
    "EPOCH": "2025-11-11T02:58:16.107456",
    "MEAN_MOTION": 15.08850502,
    "ECCENTRICITY": 0.000139,
    "INCLINATION": 53.2165,
    "RA_OF_ASC_NODE": 1.3843,
    "ARG_OF_PERICENTER": 87.1754,
    "MEAN_ANOMALY": 272.9397,
    "EPHEMERIS_TYPE": 0,
    "CLASSIFICATION_TYPE": "U",
    "NORAD_CAT_ID": 52372,
    "ELEMENT_SET_NO": 999,
    "REV_AT_EPOCH": 19801,
    "BSTAR": 0.00035856,
    "MEAN_MOTION_DOT": 5.425e-05,
    "MEAN_MOTION_DDOT": 0.0,
    "TLE_LINE1": "1 52372U 22045AT  25315.12379754  .00005425  00000+0  35856-3 0  9991",
    "TLE_LINE2": "2 52372  53.2165   1.3843 0001390  87.1754 272.9397 15.08850502198019",
    "COMMENT": "Grouped by shell and plane from TLE"
  },
  {
    "OBJECT_NAME": "STARLINK-3550",
    "OBJECT_ID": "22045AU",
    "EPOCH": "2025-11-11T07:28:31.890144",
    "MEAN_MOTION": 15.08842926,
    "ECCENTRICITY": 0.0001437,
    "INCLINATION": 53.2201,
    "RA_OF_ASC_NODE": 0.5402,
    "ARG_OF_PERICENTER": 92.8246,
    "MEAN_ANOMALY": 267.2911,
    "EPHEMERIS_TYPE": 0,
    "CLASSIFICATION_TYPE": "U",
    "NORAD_CAT_ID": 52373,
    "ELEMENT_SET_NO": 999,
    "REV_AT_EPOCH": 19805,
    "BSTAR": 0.0001027,
    "MEAN_MOTION_DOT": 1.347e-05,
    "MEAN_MOTION_DDOT": 0.0,
    "TLE_LINE1": "1 52373U 22045AU  25315.31148021  .00001347  00000+0  10270-3 0  9996",
    "TLE_LINE2": "2 52373  53.2201   0.5402 0001437  92.8246 267.2911 15.08842926198058",
    "COMMENT": "Grouped by shell and plane from TLE"
  },
  {
    "OBJECT_NAME": "STARLINK-3762",
    "OBJECT_ID": "22045AV",
    "EPOCH": "2025-11-11T02:47:41.127936",
    "MEAN_MOTION": 15.08833278,
    "ECCENTRICITY": 0.0001295,
    "INCLINATION": 53.2178,
    "RA_OF_ASC_NODE": 1.4179,
    "ARG_OF_PERICENTER": 92.4348,
    "MEAN_ANOMALY": 267.6792,
    "EPHEMERIS_TYPE": 0,
    "CLASSIFICATION_TYPE": "U",
    "NORAD_CAT_ID": 52374,
    "ELEMENT_SET_NO": 999,
    "REV_AT_EPOCH": 19802,
    "BSTAR": 6.846100000000001e-05,
    "MEAN_MOTION_DOT": 8.02e-06,
    "MEAN_MOTION_DDOT": 0.0,
    "TLE_LINE1": "1 52374U 22045AV  25315.11644824  .00000802  00000+0  68461-4 0  9998",
    "TLE_LINE2": "2 52374  53.2178   1.4179 0001295  92.4348 267.6792 15.08833278198022",
    "COMMENT": "Grouped by shell and plane from TLE"
  },
  {
    "OBJECT_NAME": "STARLINK-3785",
    "OBJECT_ID": "22045AW",
    "EPOCH": "2025-11-10T10:59:07.672416",
    "MEAN_MOTION": 15.08794694,
    "ECCENTRICITY": 0.0001375,
    "INCLINATION": 53.2193,
    "RA_OF_ASC_NODE": 4.3743,
    "ARG_OF_PERICENTER": 88.0831,
    "MEAN_ANOMALY": 272.0319,
    "EPHEMERIS_TYPE": 0,
    "CLASSIFICATION_TYPE": "U",
    "NORAD_CAT_ID": 52375,
    "ELEMENT_SET_NO": 999,
    "REV_AT_EPOCH": 19792,
    "BSTAR": 0.00039517999999999997,
    "MEAN_MOTION_DOT": 5.999e-05,
    "MEAN_MOTION_DDOT": 0.0,
    "TLE_LINE1": "1 52375U 22045AW  25314.45772769  .00005999  00000+0  39518-3 0  9997",
    "TLE_LINE2": "2 52375  53.2193   4.3743 0001375  88.0831 272.0319 15.08794694197927",
    "COMMENT": "Grouped by shell and plane from TLE"
  },
  {
    "OBJECT_NAME": "STARLINK-3767",
    "OBJECT_ID": "22045AX",
    "EPOCH": "2025-11-11T07:23:13.890624",
    "MEAN_MOTION": 15.08839358,
    "ECCENTRICITY": 0.0001343,
    "INCLINATION": 53.2189,
    "RA_OF_ASC_NODE": 0.5578,
    "ARG_OF_PERICENTER": 87.0361,
    "MEAN_ANOMALY": 273.0785,
    "EPHEMERIS_TYPE": 0,
    "CLASSIFICATION_TYPE": "U",
    "NORAD_CAT_ID": 52376,
    "ELEMENT_SET_NO": 999,
    "REV_AT_EPOCH": 19805,
    "BSTAR": 0.0,
    "MEAN_MOTION_DOT": -6.49e-06,
    "MEAN_MOTION_DDOT": 0.0,
    "TLE_LINE1": "1 52376U 22045AX  25315.30779966 -.00000649  00000+0 -22678-4 0  9998",
    "TLE_LINE2": "2 52376  53.2189   0.5578 0001343  87.0361 273.0785 15.08839358198059",
    "COMMENT": "Grouped by shell and plane from TLE"
  },
  {
    "OBJECT_NAME": "STARLINK-3805",
    "OBJECT_ID": "22045AY",
    "EPOCH": "2025-11-11T03:08:54.509280",
    "MEAN_MOTION": 15.08836126,
    "ECCENTRICITY": 0.0001668,
    "INCLINATION": 53.2166,
    "RA_OF_ASC_NODE": 1.5712,
    "ARG_OF_PERICENTER": 81.7168,
    "MEAN_ANOMALY": 278.4013,
    "EPHEMERIS_TYPE": 0,
    "CLASSIFICATION_TYPE": "U",
    "NORAD_CAT_ID": 52377,
    "ELEMENT_SET_NO": 999,
    "REV_AT_EPOCH": 19801,
    "BSTAR": 0.00038732,
    "MEAN_MOTION_DOT": 5.881e-05,
    "MEAN_MOTION_DDOT": 0.0,
    "TLE_LINE1": "1 52377U 22045AY  25315.13118645  .00005881  00000+0  38732-3 0  9999",
    "TLE_LINE2": "2 52377  53.2166   1.5712 0001668  81.7168 278.4013 15.08836126198011",
    "COMMENT": "Grouped by shell and plane from TLE"
  },
  {
    "OBJECT_NAME": "STARLINK-3806",
    "OBJECT_ID": "22045AZ",
    "EPOCH": "2025-11-11T07:12:37.600416",
    "MEAN_MOTION": 15.08843879,
    "ECCENTRICITY": 0.0001324,
    "INCLINATION": 53.2187,
    "RA_OF_ASC_NODE": 0.5898,
    "ARG_OF_PERICENTER": 86.866,
    "MEAN_ANOMALY": 273.2483,
    "EPHEMERIS_TYPE": 0,
    "CLASSIFICATION_TYPE": "U",
    "NORAD_CAT_ID": 52378,
    "ELEMENT_SET_NO": 999,
    "REV_AT_EPOCH": 19805,
    "BSTAR": 5.475600000000001e-05,
    "MEAN_MOTION_DOT": 5.84e-06,
    "MEAN_MOTION_DDOT": 0.0,
    "TLE_LINE1": "1 52378U 22045AZ  25315.30043519  .00000584  00000+0  54756-4 0  9996",
    "TLE_LINE2": "2 52378  53.2187   0.5898 0001324  86.8660 273.2483 15.08843879198052",
    "COMMENT": "Grouped by shell and plane from TLE"
  },
  {
    "OBJECT_NAME": "STARLINK-3800",
    "OBJECT_ID": "22045BA",
    "EPOCH": "2025-11-11T07:17:56.055264",
    "MEAN_MOTION": 15.08837578,
    "ECCENTRICITY": 0.0001232,
    "INCLINATION": 53.2186,
    "RA_OF_ASC_NODE": 0.573,
    "ARG_OF_PERICENTER": 80.5786,
    "MEAN_ANOMALY": 279.5345,
    "EPHEMERIS_TYPE": 0,
    "CLASSIFICATION_TYPE": "U",
    "NORAD_CAT_ID": 52379,
    "ELEMENT_SET_NO": 999,
    "REV_AT_EPOCH": 19805,
    "BSTAR": 3.9007e-05,
    "MEAN_MOTION_DOT": 3.33e-06,
    "MEAN_MOTION_DDOT": 0.0,
    "TLE_LINE1": "1 52379U 22045BA  25315.30412101  .00000333  00000+0  39007-4 0  9998",
    "TLE_LINE2": "2 52379  53.2186   0.5730 0001232  80.5786 279.5345 15.08837578198050",
    "COMMENT": "Grouped by shell and plane from TLE"
  },
  {
    "OBJECT_NAME": "STARLINK-3799",
    "OBJECT_ID": "22045BD",
    "EPOCH": "2025-11-11T07:02:02.131872",
    "MEAN_MOTION": 15.0883843,
    "ECCENTRICITY": 0.000155,
    "INCLINATION": 53.2206,
    "RA_OF_ASC_NODE": 0.6337,
    "ARG_OF_PERICENTER": 96.5771,
    "MEAN_ANOMALY": 263.5398,
    "EPHEMERIS_TYPE": 0,
    "CLASSIFICATION_TYPE": "U",
    "NORAD_CAT_ID": 52382,
    "ELEMENT_SET_NO": 999,
    "REV_AT_EPOCH": 19805,
    "BSTAR": 4.4436e-05,
    "MEAN_MOTION_DOT": 4.19e-06,
    "MEAN_MOTION_DDOT": 0.0,
    "TLE_LINE1": "1 52382U 22045BD  25315.29308023  .00000419  00000+0  44436-4 0  9994",
    "TLE_LINE2": "2 52382  53.2206   0.6337 0001550  96.5771 263.5398 15.08838430198054",
    "COMMENT": "Grouped by shell and plane from TLE"
  },
  {
    "OBJECT_NAME": "STARLINK-4128",
    "OBJECT_ID": "22086H",
    "EPOCH": "2025-11-11T03:22:50.062080",
    "MEAN_MOTION": 15.08839802,
    "ECCENTRICITY": 0.0001481,
    "INCLINATION": 53.2178,
    "RA_OF_ASC_NODE": 6.3165,
    "ARG_OF_PERICENTER": 92.5348,
    "MEAN_ANOMALY": 267.5814,
    "EPHEMERIS_TYPE": 0,
    "CLASSIFICATION_TYPE": "U",
    "NORAD_CAT_ID": 53249,
    "ELEMENT_SET_NO": 999,
    "REV_AT_EPOCH": 18318,
    "BSTAR": 8.431100000000001e-05,
    "MEAN_MOTION_DOT": 1.054e-05,
    "MEAN_MOTION_DDOT": 0.0,
    "TLE_LINE1": "1 53249U 22086H   25315.14085720  .00001054  00000+0  84311-4 0  9994",
    "TLE_LINE2": "2 53249  53.2178   6.3165 0001481  92.5348 267.5814 15.08839802183185",
    "COMMENT": "Grouped by shell and plane from TLE"
  }
]